NORAD_CAT_ID,OBJECT_NAME,OBJECT_TYPE,EPOCH,MEAN_MOTION,ECCENTRICITY,INCLINATION,RA_OF_ASC_NODE,ARG_OF_PERICENTER,MEAN_ANOMALY,BSTAR,MEAN_MOTION_DOT,MEAN_MOTION_DDOT,TLE_LINE0,TLE_LINE1,TLE_LINE2,SEMIMAJOR_AXIS,PERIOD,APOGEE,PERIGEE,DECAYED
53741.0,STARLINK-4614,PAYLOAD,2023-11-01 20:34:02,15.08834776,0.000149,53.2161,144.3391,91.8705,268.2458,4.347e-05,4.04e-06,0.0,0 STARLINK-4614,1 53741U 22107AT  23305.85696944  .00000404  00000-0  43470-4 0  9996,2 53741  53.2161 144.3391 0001490  91.8705 268.2458 15.08834776 65150,6917.896,95.438,540.792,538.731,0.0
53741.0,STARLINK-4614,PAYLOAD,2023-11-02 12:27:53,15.08833667,0.0001497,53.2162,141.3658,92.4871,267.6292,4.2984e-05,3.96e-06,0.0,0 STARLINK-4614,1 53741U 22107AT  23306.51937216  .00000396  00000-0  42984-4 0  9999,2 53741  53.2162 141.3658 0001497  92.4871 267.6292 15.08833667 64473,6917.9,95.438,540.8,538.729,0.0
53741.0,STARLINK-4614,PAYLOAD,2023-11-02 22:00:12,15.08837235,0.0001478,53.2159,139.5812,91.0193,269.0968,3.6617e-05,2.95e-06,0.0,0 STARLINK-4614,1 53741U 22107AT  23306.91681130  .00000295  00000-0  36617-4 0  9998,2 53741  53.2159 139.5812 0001478  91.0193 269.0968 15.08837235 65316,6917.889,95.438,540.776,538.731,0.0
53741.0,STARLINK-4614,PAYLOAD,2023-11-03 13:54:04,15.08836353,0.0001478,53.2158,136.6072,89.8226,270.2935,1.8333e-05,4e-08,0.0,0 STARLINK-4614,1 53741U 22107AT  23307.57921353  .00000004  00000-0  18333-4 0  9998,2 53741  53.2158 136.6072 0001478  89.8226 270.2935 15.08836353 65412,6917.892,95.438,540.779,538.734,0.0
53741.0,STARLINK-4614,PAYLOAD,2023-11-03 20:15:36,15.08840207,0.000147,53.2162,135.4178,89.4235,270.6925,2.4692e-05,1.05e-06,0.0,0 STARLINK-4614,1 53741U 22107AT  23307.84417107  .00000105  00000-0  24692-4 0  9992,2 53741  53.2162 135.4178 0001470  89.4235 270.6925 15.08840207 64672,6917.88,95.438,540.762,538.728,0.0
53741.0,STARLINK-4614,PAYLOAD,2023-11-03 21:50:59,15.08840217,0.0001472,53.2162,135.1204,88.9537,271.1624,2.4077e-05,9.5e-07,0.0,0 STARLINK-4614,1 53741U 22107AT  23307.91041108  .00000095  00000-0  24077-4 0  9999,2 53741  53.2162 135.1204 0001472  88.9537 271.1624 15.08840217 65461,6917.88,95.438,540.763,538.726,0.0
53741.0,STARLINK-4614,PAYLOAD,2023-11-04 12:09:27,15.08838301,0.0001454,53.2161,132.4441,88.7417,271.3741,3.6322e-05,2.9e-06,0.0,0 STARLINK-4614,1 53741U 22107AT  23308.50657157  .00000290  00000-0  36322-4 0  9995,2 53741  53.2161 132.4441 0001454  88.7417 271.3741 15.08838301 65551,6917.886,95.438,540.756,538.745,0.0
53741.0,STARLINK-4614,PAYLOAD,2023-11-04 20:06:23,15.08842879,0.0001447,53.2162,130.9573,88.7847,271.331,4.0443e-05,3.56e-06,0.0,0 STARLINK-4614,1 53741U 22107AT  23308.83776827  .00000356  00000-0  40443-4 0  9999,2 53741  53.2162 130.9573 0001447  88.7847 271.3310 15.08842879 65603,6917.872,95.437,540.738,538.736,0.0
53741.0,STARLINK-4614,PAYLOAD,2023-11-05 12:00:14,15.08840704,0.0001451,53.2162,127.9838,88.7666,271.3492,5.2796e-06,-2.04e-06,0.0,0 STARLINK-4614,1 53741U 22107AT  23309.50016965 -.00000204  00000-0  52796-5 0  9992,2 53741  53.2162 127.9838 0001451  88.7666 271.3492 15.08840704 64927,6917.878,95.438,540.747,538.739,0.0
53741.0,STARLINK-4614,PAYLOAD,2023-11-05 18:21:46,15.08843909,0.0001424,53.2163,126.7947,89.585,270.5306,3.5927e-05,2.84e-06,0.0,0 STARLINK-4614,1 53741U 22107AT  23309.76512625  .00000284  00000-0  35927-4 0  9997,2 53741  53.2163 126.7947 0001424  89.5850 270.5306 15.08843909 65746,6917.868,95.437,540.719,538.748,0.0
53741.0,STARLINK-4614,PAYLOAD,2023-11-06 05:29:28,15.08846422,0.000141,53.2163,124.7131,91.6852,268.4301,5.4118e-05,5.74e-06,0.0,0 STARLINK-4614,1 53741U 22107AT  23310.22880234  .00000574  00000-0  54118-4 0  9999,2 53741  53.2163 124.7131 0001410  91.6852 268.4301 15.08846422 65036,6917.861,95.437,540.701,538.75,0.0
53741.0,STARLINK-4614,PAYLOAD,2023-11-06 18:12:33,15.0884566,0.0001494,53.2166,122.3337,94.142,265.9743,2.978e-05,1.86e-06,0.0,0 STARLINK-4614,1 53741U 22107AT  23310.75872178  .00000186  00000-0  29780-4 0  9991,2 53741  53.2166 122.3337 0001494  94.1420 265.9743 15.08845660 65891,6917.863,95.437,540.762,538.695,0.0
53741.0,STARLINK-4614,PAYLOAD,2023-11-07 11:41:50,15.08819428,0.0001279,53.2165,119.0622,95.9669,264.1469,-0.00017032,-2.996e-05,0.0,0 STARLINK-4614,1 53741U 22107AT  23311.48738637 -.00002996  00000-0 -17032-3 0  9992,2 53741  53.2165 119.0622 0001279  95.9669 264.1469 15.08819428 65221,6917.943,95.439,540.693,538.923,0.0
53741.0,STARLINK-4614,PAYLOAD,2023-11-07 14:52:36,15.08820958,0.0001284,53.2164,118.4679,94.2467,265.8672,-0.000151,-2.689e-05,0.0,0 STARLINK-4614,1 53741U 22107AT  23311.61986613 -.00002689  00000-0 -15100-3 0  9999,2 53741  53.2164 118.4679 0001284  94.2467 265.8672 15.08820958 66022,6917.939,95.439,540.692,538.915,0.0
53741.0,STARLINK-4614,PAYLOAD,2023-11-07 22:49:32,15.08823102,0.0001274,53.2163,116.9807,93.7977,266.3161,-0.00013453,-2.427e-05,0.0,0 STARLINK-4614,1 53741U 22107AT  23311.95106747 -.00002427  00000-0 -13453-3 0  9997,2 53741  53.2163 116.9807 0001274  93.7977 266.3161 15.08823102 65297,6917.932,95.439,540.678,538.916,0.0
53741.0,STARLINK-4614,PAYLOAD,2023-11-08 14:43:23,15.08824784,0.0001213,53.2163,114.0069,97.763,262.35,-9.0151e-05,-1.722e-05,0.0,0 STARLINK-4614,1 53741U 22107AT  23312.61347125 -.00001722  00000-0 -90151-4 0  9996,2 53741  53.2163 114.0069 0001213  97.7630 262.3500 15.08824784 66177,6917.927,95.439,540.631,538.953,0.0
53741.0,STARLINK-4614,PAYLOAD,2023-11-08 17:54:10,15.08827235,0.0001178,53.2163,113.4125,96.1989,263.9138,-6.5674e-05,-1.332e-05,0.0,0 STARLINK-4614,1 53741U 22107AT  23312.74595020 -.00001332  00000-0 -65674-4 0  9998,2 53741  53.2163 113.4125 0001178  96.1989 263.9138 15.08827235 65417,6917.919,95.438,540.599,538.969,0.0
53741.0,STARLINK-4614,PAYLOAD,2023-11-09 14:34:11,15.08821506,0.0001029,53.2165,109.5468,90.3894,269.7216,0.00012816,1.751e-05,0.0,0 STARLINK-4614,1 53741U 22107AT  23313.60707692  .00001751  00000-0  12816-3 0  9996,2 53741  53.2165 109.5468 0001029  90.3894 269.7216 15.08821506 66328,6917.937,95.439,540.514,539.09,0.0
53741.0,STARLINK-4614,PAYLOAD,2023-11-09 16:09:34,15.08822158,0.000103,53.2165,109.2495,90.2376,269.8735,0.0001316,1.806e-05,0.0,0 STARLINK-4614,1 53741U 22107AT  23313.67331724  .00001806  00000-0  13160-3 0  9996,2 53741  53.2165 109.2495 0001030  90.2376 269.8735 15.08822158 66333,6917.935,95.439,540.512,539.087,0.0
53741.0,STARLINK-4614,PAYLOAD,2023-11-10 03:17:16,15.0882794,0.000104,53.2166,107.1679,88.3049,271.8062,0.00015056,2.108e-05,0.0,0 STARLINK-4614,1 53741U 22107AT  23314.13699753  .00002108  00000-0  15056-3 0  9999,2 53741  53.2166 107.1679 0001040  88.3049 271.8062 15.08827940 65622,6917.917,95.438,540.502,539.063,0.0
53741.0,STARLINK-4614,PAYLOAD,2023-11-10 14:24:58,15.08835416,0.0001006,53.2166,105.086,85.8893,274.2214,0.0001223,1.659e-05,0.0,0 STARLINK-4614,1 53741U 22107AT  23314.60067661  .00001659  00000-0  12230-3 0  9999,2 53741  53.2166 105.0860 0001006  85.8893 274.2214 15.08835416 66479,6917.894,95.438,540.455,539.063,0.0
53741.0,STARLINK-4614,PAYLOAD,2023-11-10 17:35:44,15.08838182,0.0001023,53.2167,104.4913,85.3987,274.7121,0.00014205,1.974e-05,0.0,0 STARLINK-4614,1 53741U 22107AT  23314.73315473  .00001974  00000-0  14205-3 0  9994,2 53741  53.2167 104.4913 0001023  85.3987 274.7121 15.08838182 65711,6917.886,95.438,540.459,539.043,0.0
53741.0,STARLINK-4614,PAYLOAD,2023-11-11 14:15:44,15.08846954,0.0001049,53.2168,100.6255,82.1628,277.9483,0.0001335,1.838e-05,0.0,0 STARLINK-4614,1 53741U 22107AT  23315.59426781  .00001838  00000-0  13350-3 0  9993,2 53741  53.2168 100.6255 0001049  82.1628 277.9483 15.08846954 66627,6917.859,95.437,540.45,538.998,0.0
53741.0,STARLINK-4614,PAYLOAD,2023-11-11 17:26:30,15.08850329,0.0001044,53.2171,100.0302,78.9326,281.1783,0.00011512,1.545e-05,0.0,0 STARLINK-4614,1 53741U 22107AT  23315.72674578  .00001545  00000-0  11512-3 0  9990,2 53741  53.2171 100.0302 0001044  78.9326 281.1783 15.08850329 65867,6917.849,95.437,540.436,538.992,0.0
53741.0,STARLINK-4614,PAYLOAD,2023-11-12 14:06:31,15.08850319,0.0001078,53.2169,96.1653,78.8291,281.2822,6.1636e-05,6.94e-06,0.0,0 STARLINK-4614,1 53741U 22107AT  23316.58786181  .00000694  00000-0  61636-4 0  9996,2 53741  53.2169  96.1653 0001078  78.8291 281.2822 15.08850319 66770,6917.849,95.437,540.46,538.968,0.0
53741.0,STARLINK-4614,PAYLOAD,2023-11-12 15:41:54,15.08850579,9.97e-05,53.2167,95.8681,86.4436,273.667,6.3891e-05,7.29e-06,0.0,0 STARLINK-4614,1 53741U 22107AT  23316.65410065  .00000729  00000-0  63891-4 0  9993,2 53741  53.2167  95.8681 0000997  86.4436 273.6670 15.08850579 66785,6917.848,95.437,540.403,539.023,0.0
53741.0,STARLINK-4614,PAYLOAD,2023-11-13 09:11:08,15.0885483,0.0001068,53.2178,92.5975,89.2559,270.8556,-9.7217e-05,-1.835e-05,0.0,0 STARLINK-4614,1 53741U 22107AT  23317.38273946 -.00001835  00000-0 -97217-4 0  9999,2 53741  53.2178  92.5975 0001068  89.2559 270.8556 15.08854830 66117,6917.835,95.437,540.439,538.961,0.0
53741.0,STARLINK-4614,PAYLOAD,2023-11-14 12:12:41,15.08841549,0.0001131,53.2181,87.542,94.8282,265.2839,-3.3946e-05,-8.28e-06,0.0,0 STARLINK-4614,1 53741U 22107AT  23318.50881874 -.00000828  00000-0 -33946-4 0  9999,2 53741  53.2181  87.5420 0001131  94.8282 265.2839 15.08841549 66289,6917.876,95.437,540.523,538.958,0.0
53741.0,STARLINK-4614,PAYLOAD,2023-11-14 15:23:28,15.08843151,0.0001166,53.2188,86.9468,91.9074,268.2052,-6.2117e-05,-1.276e-05,0.0,0 STARLINK-4614,1 53741U 22107AT  23318.64129884 -.00001276  00000-0 -62117-4 0  9990,2 53741  53.2188  86.9468 0001166  91.9074 268.2052 15.08843151 67086,6917.871,95.437,540.542,538.929,0.0
53741.0,STARLINK-4614,PAYLOAD,2023-11-15 15:14:15,15.08837744,0.0001175,53.2183,82.487,89.2192,270.8935,2.9118e-06,-2.41e-06,0.0,0 STARLINK-4614,1 53741U 22107AT  23319.63489995 -.00000241  00000-0  29118-5 0  9997,2 53741  53.2183  82.4870 0001175  89.2192 270.8935 15.08837744 67237,6917.887,95.438,540.565,538.939,0.0
